[Satellite]
VERSION=1.1
NAME=CZ-6A DEB
NICKNAME=CZ-6A DEB
TLE1=1 54577U 22151MD  22342.29516024  .00004549  00000+0  15158-2 0  9994
TLE2=2 54577  98.5043 345.8469 0107581 222.0036 137.2864 14.34826342  3073
STATUS=0
